{"type": "FeatureCollection", "features": [{"type": "Feature", "properties": {"score": 0.48}, "geometry": {"type": "Point", "coordinates": [-122.34385058283807, 47.66192987194192]}}, {"type": "Feature", "properties": {"score": 0.683}, "geometry": {"type": "Point", "coordinates": [-122.34402760863304, 47.661832322038975]}}, {"type": "Feature", "properties": {"score": 0.683}, "geometry": {"type": "Point", "coordinates": [-122.34402760863304, 47.661828709076104]}}, {"type": "Feature", "properties": {"score": 0.858}, "geometry": {"type": "Point", "coordinates": [-122.34471961855891, 47.66177451460307]}}, {"type": "Feature", "properties": {"score": 0.882}, "geometry": {"type": "Point", "coordinates": [-122.34471961855891, 47.661474637501975]}}, {"type": "Feature", "properties": {"score": 0.865}, "geometry": {"type": "Point", "coordinates": [-122.34441921114923, 47.66145657256136]}}, {"type": "Feature", "properties": {"score": 0.886}, "geometry": {"type": "Point", "coordinates": [-122.34385058283807, 47.66145657256136]}}, {"type": "Feature", "properties": {"score": 0.846}, "geometry": {"type": "Point", "coordinates": [-122.3444674909115, 47.66128314881339]}}, {"type": "Feature", "properties": {"score": 0.453}, "geometry": {"type": "Point", "coordinates": [-122.34351798892024, 47.66172754601424]}}, {"type": "Feature", "properties": {"score": 0.359}, "geometry": {"type": "Point", "coordinates": [-122.3436360061169, 47.66162999573324]}}, {"type": "Feature", "properties": {"score": 0.301}, "geometry": {"type": "Point", "coordinates": [-122.34304055571556, 47.661489089449965]}}, {"type": "Feature", "properties": {"score": 0.469}, "geometry": {"type": "Point", "coordinates": [-122.34341070055963, 47.66145657256136]}}, {"type": "Feature", "properties": {"score": 0.4}, "geometry": {"type": "Point", "coordinates": [-122.34271869063379, 47.661308439812515]}}, {"type": "Feature", "properties": {"score": 0.415}, "geometry": {"type": "Point", "coordinates": [-122.34226271510127, 47.661781740536036]}}, {"type": "Feature", "properties": {"score": 0.294}, "geometry": {"type": "Point", "coordinates": [-122.34201058745386, 47.661485476463355]}}, {"type": "Feature", "properties": {"score": 0.581}, "geometry": {"type": "Point", "coordinates": [-122.34228417277338, 47.66146741152649]}}, {"type": "Feature", "properties": {"score": 0.457}, "geometry": {"type": "Point", "coordinates": [-122.34143659472467, 47.661460185549984]}}, {"type": "Feature", "properties": {"score": 0.504}, "geometry": {"type": "Point", "coordinates": [-122.34227880835535, 47.6612686968084]}}, {"type": "Feature", "properties": {"score": 0.52}, "geometry": {"type": "Point", "coordinates": [-122.34057292342189, 47.661684190356304]}}, {"type": "Feature", "properties": {"score": 0.769}, "geometry": {"type": "Point", "coordinates": [-122.34074458479883, 47.661557736148296]}}, {"type": "Feature", "properties": {"score": 0.453}, "geometry": {"type": "Point", "coordinates": [-122.3408143222332, 47.661460185549984]}}, {"type": "Feature", "properties": {"score": 0.453}, "geometry": {"type": "Point", "coordinates": [-122.34110936522485, 47.66131205281139]}}, {"type": "Feature", "properties": {"score": 0.496}, "geometry": {"type": "Point", "coordinates": [-122.34049245715144, 47.66131205281139]}}, {"type": "Feature", "properties": {"score": 0.434}, "geometry": {"type": "Point", "coordinates": [-122.34074994921686, 47.6612650838065]}}, {"type": "Feature", "properties": {"score": 0.434}, "geometry": {"type": "Point", "coordinates": [-122.34074458479883, 47.6612650838065]}}, {"type": "Feature", "properties": {"score": 0.709}, "geometry": {"type": "Point", "coordinates": [-122.33931228518487, 47.661460185549984]}}, {"type": "Feature", "properties": {"score": 0.465}, "geometry": {"type": "Point", "coordinates": [-122.34008476138118, 47.66145657256136]}}, {"type": "Feature", "properties": {"score": 0.389}, "geometry": {"type": "Point", "coordinates": [-122.3390279710293, 47.66145657256136]}}, {"type": "Feature", "properties": {"score": 0.251}, "geometry": {"type": "Point", "coordinates": [-122.33900651335716, 47.6613337307994]}}, {"type": "Feature", "properties": {"score": 0.269}, "geometry": {"type": "Point", "coordinates": [-122.34008476138118, 47.66131205281139]}}, {"type": "Feature", "properties": {"score": 0.85}, "geometry": {"type": "Point", "coordinates": [-122.33971461653711, 47.66131205281139]}}, {"type": "Feature", "properties": {"score": 0.78}, "geometry": {"type": "Point", "coordinates": [-122.33775660395622, 47.661814257222126]}}, {"type": "Feature", "properties": {"score": 0.633}, "geometry": {"type": "Point", "coordinates": [-122.3378048837185, 47.66146379853837]}}, {"type": "Feature", "properties": {"score": 0.715}, "geometry": {"type": "Point", "coordinates": [-122.33865782618524, 47.661460185549984]}}, {"type": "Feature", "properties": {"score": 0.419}, "geometry": {"type": "Point", "coordinates": [-122.33822867274287, 47.66131566581001]}}, {"type": "Feature", "properties": {"score": 0.453}, "geometry": {"type": "Point", "coordinates": [-122.33651205897333, 47.661738384923105]}}, {"type": "Feature", "properties": {"score": 0.272}, "geometry": {"type": "Point", "coordinates": [-122.33651742339136, 47.66147102451434]}}, {"type": "Feature", "properties": {"score": 0.574}, "geometry": {"type": "Point", "coordinates": [-122.33756348490715, 47.661460185549984]}}, {"type": "Feature", "properties": {"score": 0.604}, "geometry": {"type": "Point", "coordinates": [-122.33715578913692, 47.661460185549984]}}, {"type": "Feature", "properties": {"score": 0.543}, "geometry": {"type": "Point", "coordinates": [-122.33658179640773, 47.661460185549984]}}, {"type": "Feature", "properties": {"score": 0.574}, "geometry": {"type": "Point", "coordinates": [-122.33756348490715, 47.66145657256136]}}, {"type": "Feature", "properties": {"score": 0.423}, "geometry": {"type": "Point", "coordinates": [-122.33722016215324, 47.66131566581001]}}, {"type": "Feature", "properties": {"score": 0.492}, "geometry": {"type": "Point", "coordinates": [-122.33685538172723, 47.66131205281139]}}, {"type": "Feature", "properties": {"score": 0.492}, "geometry": {"type": "Point", "coordinates": [-122.3368500173092, 47.66131205281139]}}, {"type": "Feature", "properties": {"score": 0.641}, "geometry": {"type": "Point", "coordinates": [-122.33744546771051, 47.661286761814]}}, {"type": "Feature", "properties": {"score": 0.484}, "geometry": {"type": "Point", "coordinates": [-122.33634576201442, 47.66183593500157]}}, {"type": "Feature", "properties": {"score": 0.465}, "geometry": {"type": "Point", "coordinates": [-122.33634039759636, 47.66149270243635]}}, {"type": "Feature", "properties": {"score": 0.477}, "geometry": {"type": "Point", "coordinates": [-122.33592197299005, 47.66131205281139]}}, {"type": "Feature", "properties": {"score": 0.596}, "geometry": {"type": "Point", "coordinates": [-122.33627066016199, 47.66128314881339]}}, {"type": "Feature", "properties": {"score": 0.566}, "geometry": {"type": "Point", "coordinates": [-122.33509585261348, 47.66197322739582]}}, {"type": "Feature", "properties": {"score": 0.898}, "geometry": {"type": "Point", "coordinates": [-122.33510121703151, 47.66174561086112]}}, {"type": "Feature", "properties": {"score": 0.392}, "geometry": {"type": "Point", "coordinates": [-122.33510121703151, 47.66160470488989]}}, {"type": "Feature", "properties": {"score": 0.419}, "geometry": {"type": "Point", "coordinates": [-122.33527824282648, 47.661460185549984]}}, {"type": "Feature", "properties": {"score": 0.419}, "geometry": {"type": "Point", "coordinates": [-122.33527287840845, 47.661460185549984]}}, {"type": "Feature", "properties": {"score": 0.446}, "geometry": {"type": "Point", "coordinates": [-122.33518704771997, 47.66131205281139]}}, {"type": "Feature", "properties": {"score": 0.589}, "geometry": {"type": "Point", "coordinates": [-122.33506366610528, 47.661210888748364]}}, {"type": "Feature", "properties": {"score": 0.801}, "geometry": {"type": "Point", "coordinates": [-122.34385058283807, 47.66107359434927]}}, {"type": "Feature", "properties": {"score": 0.801}, "geometry": {"type": "Point", "coordinates": [-122.34385058283807, 47.6610699813339]}}, {"type": "Feature", "properties": {"score": 0.876}, "geometry": {"type": "Point", "coordinates": [-122.3444674909115, 47.660954364709774]}}, {"type": "Feature", "properties": {"score": 0.285}, "geometry": {"type": "Point", "coordinates": [-122.34385058283807, 47.66075564803885]}}, {"type": "Feature", "properties": {"score": 0.604}, "geometry": {"type": "Point", "coordinates": [-122.34411880373955, 47.66061112634851]}}, {"type": "Feature", "properties": {"score": 0.842}, "geometry": {"type": "Point", "coordinates": [-122.3444674909115, 47.66058583501157]}}, {"type": "Feature", "properties": {"score": 0.662}, "geometry": {"type": "Point", "coordinates": [-122.34370574355125, 47.66110972448931]}}, {"type": "Feature", "properties": {"score": 0.815}, "geometry": {"type": "Point", "coordinates": [-122.3430995643139, 47.66061835244255]}}, {"type": "Feature", "properties": {"score": 0.703}, "geometry": {"type": "Point", "coordinates": [-122.34260603785516, 47.66061835244255]}}, {"type": "Feature", "properties": {"score": 0.775}, "geometry": {"type": "Point", "coordinates": [-122.3436735570431, 47.660614739395655]}}, {"type": "Feature", "properties": {"score": 0.914}, "geometry": {"type": "Point", "coordinates": [-122.3422895371914, 47.66101578607323]}}, {"type": "Feature", "properties": {"score": 0.734}, "geometry": {"type": "Point", "coordinates": [-122.342037409544, 47.660762874112855]}}, {"type": "Feature", "properties": {"score": 0.581}, "geometry": {"type": "Point", "coordinates": [-122.34204813838006, 47.660614739395655]}}, {"type": "Feature", "properties": {"score": 0.815}, "geometry": {"type": "Point", "coordinates": [-122.3414097726345, 47.660614739395655]}}, {"type": "Feature", "properties": {"score": 0.449}, "geometry": {"type": "Point", "coordinates": [-122.34231099486351, 47.66061112634851]}}, {"type": "Feature", "properties": {"score": 0.641}, "geometry": {"type": "Point", "coordinates": [-122.34074458479883, 47.661127789549944]}}, {"type": "Feature", "properties": {"score": 0.758}, "geometry": {"type": "Point", "coordinates": [-122.34074994921686, 47.66098326888982]}}, {"type": "Feature", "properties": {"score": 0.662}, "geometry": {"type": "Point", "coordinates": [-122.34075531363489, 47.660582221962436]}}, {"type": "Feature", "properties": {"score": 0.535}, "geometry": {"type": "Point", "coordinates": [-122.33925864100458, 47.66102662512985]}}, {"type": "Feature", "properties": {"score": 0.4}, "geometry": {"type": "Point", "coordinates": [-122.33848616480829, 47.66112417653832]}}, {"type": "Feature", "properties": {"score": 0.558}, "geometry": {"type": "Point", "coordinates": [-122.33848616480829, 47.66096159075627]}}, {"type": "Feature", "properties": {"score": 0.619}, "geometry": {"type": "Point", "coordinates": [-122.33848616480829, 47.66071229157374]}}, {"type": "Feature", "properties": {"score": 0.879}, "geometry": {"type": "Point", "coordinates": [-122.33848616480829, 47.66036182549242]}}, {"type": "Feature", "properties": {"score": 0.535}, "geometry": {"type": "Point", "coordinates": [-122.33804091811183, 47.660354599362925]}}, {"type": "Feature", "properties": {"score": 0.775}, "geometry": {"type": "Point", "coordinates": [-122.33744546771051, 47.66094713866228]}}, {"type": "Feature", "properties": {"score": 0.604}, "geometry": {"type": "Point", "coordinates": [-122.33729526400568, 47.66078816536403]}}, {"type": "Feature", "properties": {"score": 0.886}, "geometry": {"type": "Point", "coordinates": [-122.33729526400568, 47.66066170898564]}}, {"type": "Feature", "properties": {"score": 0.85}, "geometry": {"type": "Point", "coordinates": [-122.33730062842369, 47.6603582124278]}}, {"type": "Feature", "properties": {"score": 0.886}, "geometry": {"type": "Point", "coordinates": [-122.33653888106349, 47.660354599362925]}}, {"type": "Feature", "properties": {"score": 0.85}, "geometry": {"type": "Point", "coordinates": [-122.33608826994897, 47.66094352563814]}}, {"type": "Feature", "properties": {"score": 0.4}, "geometry": {"type": "Point", "coordinates": [-122.33627602458002, 47.66091823446225]}}, {"type": "Feature", "properties": {"score": 0.872}, "geometry": {"type": "Point", "coordinates": [-122.33627602458002, 47.660705065492735]}}, {"type": "Feature", "properties": {"score": 0.74}, "geometry": {"type": "Point", "coordinates": [-122.33608290553094, 47.660658095941756]}}, {"type": "Feature", "properties": {"score": 0.683}, "geometry": {"type": "Point", "coordinates": [-122.33627602458002, 47.660379890811875]}}, {"type": "Feature", "properties": {"score": 0.921}, "geometry": {"type": "Point", "coordinates": [-122.33608826994897, 47.660379890811875]}}, {"type": "Feature", "properties": {"score": 0.604}, "geometry": {"type": "Point", "coordinates": [-122.33505830168727, 47.66096159075627]}}, {"type": "Feature", "properties": {"score": 0.758}, "geometry": {"type": "Point", "coordinates": [-122.33506903052331, 47.6607339698108]}}, {"type": "Feature", "properties": {"score": 0.734}, "geometry": {"type": "Point", "coordinates": [-122.33506903052331, 47.66037266468484]}}, {"type": "Feature", "properties": {"score": 0.385}, "geometry": {"type": "Point", "coordinates": [-122.34386131167413, 47.66031485563263]}}, {"type": "Feature", "properties": {"score": 0.801}, "geometry": {"type": "Point", "coordinates": [-122.34447285532954, 47.660213689637295]}}, {"type": "Feature", "properties": {"score": 0.461}, "geometry": {"type": "Point", "coordinates": [-122.34386131167413, 47.660040261760585]}}, {"type": "Feature", "properties": {"score": 0.85}, "geometry": {"type": "Point", "coordinates": [-122.3446659743786, 47.65993186904509]}}, {"type": "Feature", "properties": {"score": 0.869}, "geometry": {"type": "Point", "coordinates": [-122.34408125281334, 47.65990296428294]}}, {"type": "Feature", "properties": {"score": 0.796}, "geometry": {"type": "Point", "coordinates": [-122.34447285532954, 47.659874059504794]}}, {"type": "Feature", "properties": {"score": 0.619}, "geometry": {"type": "Point", "coordinates": [-122.34371647238734, 47.659668112497336]}}, {"type": "Feature", "properties": {"score": 0.806}, "geometry": {"type": "Point", "coordinates": [-122.3444835841656, 47.65966088627178]}}, {"type": "Feature", "properties": {"score": 0.294}, "geometry": {"type": "Point", "coordinates": [-122.34263285994533, 47.65991019047496]}}, {"type": "Feature", "properties": {"score": 0.846}, "geometry": {"type": "Point", "coordinates": [-122.34321221709253, 47.65990657737909]}}, {"type": "Feature", "properties": {"score": 0.906}, "geometry": {"type": "Point", "coordinates": [-122.34370574355125, 47.65989935118654]}}, {"type": "Feature", "properties": {"score": 0.288}, "geometry": {"type": "Point", "coordinates": [-122.34206423163414, 47.66026065958808]}}, {"type": "Feature", "properties": {"score": 0.288}, "geometry": {"type": "Point", "coordinates": [-122.34205886721614, 47.66026065958808]}}, {"type": "Feature", "properties": {"score": 0.288}, "geometry": {"type": "Point", "coordinates": [-122.34206423163414, 47.660257046516435]}}, {"type": "Feature", "properties": {"score": 0.81}, "geometry": {"type": "Point", "coordinates": [-122.34168872237207, 47.65990657737909]}}, {"type": "Feature", "properties": {"score": 0.619}, "geometry": {"type": "Point", "coordinates": [-122.34234854578972, 47.65990296428294]}}, {"type": "Feature", "properties": {"score": 0.619}, "geometry": {"type": "Point", "coordinates": [-122.34234318137172, 47.65990296428294]}}, {"type": "Feature", "properties": {"score": 0.906}, "geometry": {"type": "Point", "coordinates": [-122.3420695960522, 47.65990296428294]}}, {"type": "Feature", "properties": {"score": 0.275}, "geometry": {"type": "Point", "coordinates": [-122.34237536787988, 47.65957778460619]}}, {"type": "Feature", "properties": {"score": 0.275}, "geometry": {"type": "Point", "coordinates": [-122.34237000346185, 47.65957778460619]}}, {"type": "Feature", "properties": {"score": 0.43}, "geometry": {"type": "Point", "coordinates": [-122.34210178256035, 47.65951997467383]}}, {"type": "Feature", "properties": {"score": 0.581}, "geometry": {"type": "Point", "coordinates": [-122.34075531363489, 47.66026427265945]}}, {"type": "Feature", "properties": {"score": 0.581}, "geometry": {"type": "Point", "coordinates": [-122.34075531363489, 47.66026065958808]}}, {"type": "Feature", "properties": {"score": 0.854}, "geometry": {"type": "Point", "coordinates": [-122.34119519591333, 47.65990296428294]}}, {"type": "Feature", "properties": {"score": 0.734}, "geometry": {"type": "Point", "coordinates": [-122.34076604247093, 47.659874059504794]}}, {"type": "Feature", "properties": {"score": 0.389}, "geometry": {"type": "Point", "coordinates": [-122.34059974551202, 47.659845154710666]}}, {"type": "Feature", "properties": {"score": 0.806}, "geometry": {"type": "Point", "coordinates": [-122.34076604247093, 47.659570558368145]}}, {"type": "Feature", "properties": {"score": 0.734}, "geometry": {"type": "Point", "coordinates": [-122.33850225806238, 47.66002219632363]}}, {"type": "Feature", "properties": {"score": 0.775}, "geometry": {"type": "Point", "coordinates": [-122.33850225806238, 47.65968617805681]}}, {"type": "Feature", "properties": {"score": 0.85}, "geometry": {"type": "Point", "coordinates": [-122.33730599284175, 47.66001858323547]}}, {"type": "Feature", "properties": {"score": 0.882}, "geometry": {"type": "Point", "coordinates": [-122.33731135725975, 47.65968617805681]}}, {"type": "Feature", "properties": {"score": 0.728}, "geometry": {"type": "Point", "coordinates": [-122.33628138899805, 47.66002219632363]}}, {"type": "Feature", "properties": {"score": 0.655}, "geometry": {"type": "Point", "coordinates": [-122.33609363436699, 47.66001135705844]}}, {"type": "Feature", "properties": {"score": 0.82}, "geometry": {"type": "Point", "coordinates": [-122.3362921178341, 47.65968617805681]}}, {"type": "Feature", "properties": {"score": 0.909}, "geometry": {"type": "Point", "coordinates": [-122.33609899878505, 47.65968256494541]}}, {"type": "Feature", "properties": {"score": 0.728}, "geometry": {"type": "Point", "coordinates": [-122.33507439494134, 47.66011613652751]}}, {"type": "Feature", "properties": {"score": 0.728}, "geometry": {"type": "Point", "coordinates": [-122.33506903052331, 47.66011613652751]}}, {"type": "Feature", "properties": {"score": 0.791}, "geometry": {"type": "Point", "coordinates": [-122.33507439494134, 47.65978734507434]}}, {"type": "Feature", "properties": {"score": 0.82}, "geometry": {"type": "Point", "coordinates": [-122.3444835841656, 47.65937906269555]}}, {"type": "Feature", "properties": {"score": 0.392}, "geometry": {"type": "Point", "coordinates": [-122.34387204051018, 47.65924176347911]}}, {"type": "Feature", "properties": {"score": 0.862}, "geometry": {"type": "Point", "coordinates": [-122.34467133879663, 47.65915143485031]}}, {"type": "Feature", "properties": {"score": 0.604}, "geometry": {"type": "Point", "coordinates": [-122.3444674909115, 47.6591189165057]}}, {"type": "Feature", "properties": {"score": 0.328}, "geometry": {"type": "Point", "coordinates": [-122.34380230307582, 47.658941871829676]}}, {"type": "Feature", "properties": {"score": 0.901}, "geometry": {"type": "Point", "coordinates": [-122.34448894858362, 47.65883347683378]}}, {"type": "Feature", "properties": {"score": 0.846}, "geometry": {"type": "Point", "coordinates": [-122.34364673495293, 47.65913336910581]}}, {"type": "Feature", "properties": {"score": 0.862}, "geometry": {"type": "Point", "coordinates": [-122.34312102198601, 47.65913336910581]}}, {"type": "Feature", "properties": {"score": 0.74}, "geometry": {"type": "Point", "coordinates": [-122.34261140227319, 47.65912614280626]}}, {"type": "Feature", "properties": {"score": 0.886}, "geometry": {"type": "Point", "coordinates": [-122.34361991286279, 47.65884070317383]}}, {"type": "Feature", "properties": {"score": 0.367}, "geometry": {"type": "Point", "coordinates": [-122.34177991747859, 47.65912614280626]}}, {"type": "Feature", "properties": {"score": 0.367}, "geometry": {"type": "Point", "coordinates": [-122.34177455306053, 47.65912614280626]}}, {"type": "Feature", "properties": {"score": 0.746}, "geometry": {"type": "Point", "coordinates": [-122.34211251139642, 47.659122529656095]}}, {"type": "Feature", "properties": {"score": 0.829}, "geometry": {"type": "Point", "coordinates": [-122.34144732356073, 47.6591189165057]}}, {"type": "Feature", "properties": {"score": 0.574}, "geometry": {"type": "Point", "coordinates": [-122.34213396906854, 47.6587684397282]}}, {"type": "Feature", "properties": {"score": 0.566}, "geometry": {"type": "Point", "coordinates": [-122.34240218997003, 47.65874676067504]}}, {"type": "Feature", "properties": {"score": 0.858}, "geometry": {"type": "Point", "coordinates": [-122.34077140688899, 47.65926344232676]}}, {"type": "Feature", "properties": {"score": 0.858}, "geometry": {"type": "Point", "coordinates": [-122.34084114432336, 47.65911169020414]}}, {"type": "Feature", "properties": {"score": 0.589}, "geometry": {"type": "Point", "coordinates": [-122.34034761786462, 47.65911169020414]}}, {"type": "Feature", "properties": {"score": 0.791}, "geometry": {"type": "Point", "coordinates": [-122.34084114432336, 47.658750373851184]}}, {"type": "Feature", "properties": {"score": 0.655}, "geometry": {"type": "Point", "coordinates": [-122.3392640054226, 47.65911169020414]}}, {"type": "Feature", "properties": {"score": 0.619}, "geometry": {"type": "Point", "coordinates": [-122.3397843539715, 47.659108077053006]}}, {"type": "Feature", "properties": {"score": 0.74}, "geometry": {"type": "Point", "coordinates": [-122.33977898955347, 47.658855155850986]}}, {"type": "Feature", "properties": {"score": 0.619}, "geometry": {"type": "Point", "coordinates": [-122.3385076224804, 47.65946577780412]}}, {"type": "Feature", "properties": {"score": 0.829}, "geometry": {"type": "Point", "coordinates": [-122.33851298689845, 47.659108077053006]}}, {"type": "Feature", "properties": {"score": 0.378}, "geometry": {"type": "Point", "coordinates": [-122.33798190951349, 47.659108077053006]}}, {"type": "Feature", "properties": {"score": 0.275}, "geometry": {"type": "Point", "coordinates": [-122.33852371573448, 47.6589165796841]}}, {"type": "Feature", "properties": {"score": 0.703}, "geometry": {"type": "Point", "coordinates": [-122.33851835131648, 47.6587539870271]}}, {"type": "Feature", "properties": {"score": 0.785}, "geometry": {"type": "Point", "coordinates": [-122.33731135725975, 47.65946577780412]}}, {"type": "Feature", "properties": {"score": 0.662}, "geometry": {"type": "Point", "coordinates": [-122.33731672167778, 47.659100850749944]}}, {"type": "Feature", "properties": {"score": 0.442}, "geometry": {"type": "Point", "coordinates": [-122.33677491545679, 47.659100850749944]}}, {"type": "Feature", "properties": {"score": 0.307}, "geometry": {"type": "Point", "coordinates": [-122.33671590685846, 47.65878289242536]}}, {"type": "Feature", "properties": {"score": 0.662}, "geometry": {"type": "Point", "coordinates": [-122.33610436320308, 47.65935738389589]}}, {"type": "Feature", "properties": {"score": 0.796}, "geometry": {"type": "Point", "coordinates": [-122.3362921178341, 47.65934293135781]}}, {"type": "Feature", "properties": {"score": 0.927}, "geometry": {"type": "Point", "coordinates": [-122.33610972762108, 47.659093624445894]}}, {"type": "Feature", "properties": {"score": 0.895}, "geometry": {"type": "Point", "coordinates": [-122.33554109930992, 47.659090011293465]}}, {"type": "Feature", "properties": {"score": 0.854}, "geometry": {"type": "Point", "coordinates": [-122.33629748225215, 47.658797345118465]}}, {"type": "Feature", "properties": {"score": 0.669}, "geometry": {"type": "Point", "coordinates": [-122.33610972762108, 47.65878650559901]}}, {"type": "Feature", "properties": {"score": 0.696}, "geometry": {"type": "Point", "coordinates": [-122.33507975935937, 47.65945855155058]}}, {"type": "Feature", "properties": {"score": 0.882}, "geometry": {"type": "Point", "coordinates": [-122.33508512377739, 47.659093624445894]}}, {"type": "Feature", "properties": {"score": 0.909}, "geometry": {"type": "Point", "coordinates": [-122.33509048819545, 47.65884070317383]}}, {"type": "Feature", "properties": {"score": 0.824}, "geometry": {"type": "Point", "coordinates": [-122.34448894858362, 47.65863113890596]}}, {"type": "Feature", "properties": {"score": 0.824}, "geometry": {"type": "Point", "coordinates": [-122.34448894858362, 47.65862752572157]}}, {"type": "Feature", "properties": {"score": 0.903}, "geometry": {"type": "Point", "coordinates": [-122.34449431300165, 47.65834930977122]}}, {"type": "Feature", "properties": {"score": 0.543}, "geometry": {"type": "Point", "coordinates": [-122.34449431300165, 47.658110837776675]}}, {"type": "Feature", "properties": {"score": 0.775}, "geometry": {"type": "Point", "coordinates": [-122.34467670321467, 47.658103611335605]}}, {"type": "Feature", "properties": {"score": 0.901}, "geometry": {"type": "Point", "coordinates": [-122.3440329730511, 47.658074705561276]}}, {"type": "Feature", "properties": {"score": 0.82}, "geometry": {"type": "Point", "coordinates": [-122.34353408217432, 47.65845047937925]}}, {"type": "Feature", "properties": {"score": 0.269}, "geometry": {"type": "Point", "coordinates": [-122.343657463789, 47.658277045645455]}}, {"type": "Feature", "properties": {"score": 0.626}, "geometry": {"type": "Point", "coordinates": [-122.34365209937097, 47.65807109233837]}}, {"type": "Feature", "properties": {"score": 0.709}, "geometry": {"type": "Point", "coordinates": [-122.34308883547784, 47.658067479115196]}}, {"type": "Feature", "properties": {"score": 0.683}, "geometry": {"type": "Point", "coordinates": [-122.34258994460109, 47.658067479115196]}}, {"type": "Feature", "properties": {"score": 0.288}, "geometry": {"type": "Point", "coordinates": [-122.34214469790462, 47.658533582839176]}}, {"type": "Feature", "properties": {"score": 0.374}, "geometry": {"type": "Point", "coordinates": [-122.34139367938046, 47.6584540925759]}}, {"type": "Feature", "properties": {"score": 0.527}, "geometry": {"type": "Point", "coordinates": [-122.34215006232262, 47.65837821539351]}}, {"type": "Feature", "properties": {"score": 0.709}, "geometry": {"type": "Point", "coordinates": [-122.34216615557672, 47.658067479115196]}}, {"type": "Feature", "properties": {"score": 0.763}, "geometry": {"type": "Point", "coordinates": [-122.34160825610162, 47.6580602526681]}}, {"type": "Feature", "properties": {"score": 0.297}, "geometry": {"type": "Point", "coordinates": [-122.3421768844128, 47.6579265632167]}}, {"type": "Feature", "properties": {"score": 0.703}, "geometry": {"type": "Point", "coordinates": [-122.34119519591333, 47.65805663944419]}}, {"type": "Feature", "properties": {"score": 0.858}, "geometry": {"type": "Point", "coordinates": [-122.34085723757744, 47.65805663944419]}}, {"type": "Feature", "properties": {"score": 0.824}, "geometry": {"type": "Point", "coordinates": [-122.34024569392207, 47.65805663944419]}}, {"type": "Feature", "properties": {"score": 0.889}, "geometry": {"type": "Point", "coordinates": [-122.3397843539715, 47.658432413392184]}}, {"type": "Feature", "properties": {"score": 0.879}, "geometry": {"type": "Point", "coordinates": [-122.33980044722557, 47.65805302622003]}}, {"type": "Feature", "properties": {"score": 0.815}, "geometry": {"type": "Point", "coordinates": [-122.33919963240626, 47.65804941299562]}}, {"type": "Feature", "properties": {"score": 0.492}, "geometry": {"type": "Point", "coordinates": [-122.33852371573448, 47.65841434739888]}}, {"type": "Feature", "properties": {"score": 0.715}, "geometry": {"type": "Point", "coordinates": [-122.33852908015253, 47.65804218654605]}}, {"type": "Feature", "properties": {"score": 0.314}, "geometry": {"type": "Point", "coordinates": [-122.33630284667015, 47.65856610154839]}}, {"type": "Feature", "properties": {"score": 0.648}, "geometry": {"type": "Point", "coordinates": [-122.33611509203912, 47.65855164879123]}}, {"type": "Feature", "properties": {"score": 0.85}, "geometry": {"type": "Point", "coordinates": [-122.33630821108821, 47.65829149847864]}}, {"type": "Feature", "properties": {"score": 0.722}, "geometry": {"type": "Point", "coordinates": [-122.33612582087518, 47.65828427206256]}}, {"type": "Feature", "properties": {"score": 0.722}, "geometry": {"type": "Point", "coordinates": [-122.33612045645715, 47.65828427206256]}}, {"type": "Feature", "properties": {"score": 0.876}, "geometry": {"type": "Point", "coordinates": [-122.33612045645715, 47.658063865891776]}}, {"type": "Feature", "properties": {"score": 0.865}, "geometry": {"type": "Point", "coordinates": [-122.3356215655804, 47.65803496009544]}}, {"type": "Feature", "properties": {"score": 0.838}, "geometry": {"type": "Point", "coordinates": [-122.33509585261348, 47.65855887517029]}}, {"type": "Feature", "properties": {"score": 0.889}, "geometry": {"type": "Point", "coordinates": [-122.33510121703151, 47.65826259280833]}}, {"type": "Feature", "properties": {"score": 0.763}, "geometry": {"type": "Point", "coordinates": [-122.33510658144952, 47.65805663944419]}}, {"type": "Feature", "properties": {"score": 0.758}, "geometry": {"type": "Point", "coordinates": [-122.3445050418377, 47.657800099907064]}}, {"type": "Feature", "properties": {"score": 0.933}, "geometry": {"type": "Point", "coordinates": [-122.34454259276391, 47.65758691820599]}}, {"type": "Feature", "properties": {"score": 0.876}, "geometry": {"type": "Point", "coordinates": [-122.34454795718194, 47.65725449754549]}}, {"type": "Feature", "properties": {"score": 0.829}, "geometry": {"type": "Point", "coordinates": [-122.34360918402673, 47.65774951449743]}}, {"type": "Feature", "properties": {"score": 0.846}, "geometry": {"type": "Point", "coordinates": [-122.34361454844476, 47.657413481603676]}}, {"type": "Feature", "properties": {"score": 0.477}, "geometry": {"type": "Point", "coordinates": [-122.34218761324883, 47.6577603542322]}}, {"type": "Feature", "properties": {"score": 0.527}, "geometry": {"type": "Point", "coordinates": [-122.3424504697323, 47.65759053146242]}}, {"type": "Feature", "properties": {"score": 0.469}, "geometry": {"type": "Point", "coordinates": [-122.3421983420849, 47.657464067338864]}}, {"type": "Feature", "properties": {"score": 0.683}, "geometry": {"type": "Point", "coordinates": [-122.34221443533899, 47.65720752489018]}}, {"type": "Feature", "properties": {"score": 0.746}, "geometry": {"type": "Point", "coordinates": [-122.3408626019955, 47.65758330494931]}}, {"type": "Feature", "properties": {"score": 0.655}, "geometry": {"type": "Point", "coordinates": [-122.33979508280756, 47.65757607843522]}}, {"type": "Feature", "properties": {"score": 0.676}, "geometry": {"type": "Point", "coordinates": [-122.33980044722557, 47.65725449754549]}}, {"type": "Feature", "properties": {"score": 0.769}, "geometry": {"type": "Point", "coordinates": [-122.33853980898859, 47.65764473027875]}}, {"type": "Feature", "properties": {"score": 0.824}, "geometry": {"type": "Point", "coordinates": [-122.33854517340662, 47.65724727098587]}}, {"type": "Feature", "properties": {"score": 0.74}, "geometry": {"type": "Point", "coordinates": [-122.33733817934991, 47.65757607843522]}}, {"type": "Feature", "properties": {"score": 0.683}, "geometry": {"type": "Point", "coordinates": [-122.33734354376793, 47.65723643114459]}}, {"type": "Feature", "properties": {"score": 0.785}, "geometry": {"type": "Point", "coordinates": [-122.33631357550621, 47.657883204402175]}}, {"type": "Feature", "properties": {"score": 0.641}, "geometry": {"type": "Point", "coordinates": [-122.33613118529321, 47.65774951449743]}}, {"type": "Feature", "properties": {"score": 0.862}, "geometry": {"type": "Point", "coordinates": [-122.33613654971123, 47.657503813239295]}}, {"type": "Feature", "properties": {"score": 0.703}, "geometry": {"type": "Point", "coordinates": [-122.33632430434228, 47.65743877447741]}}, {"type": "Feature", "properties": {"score": 0.872}, "geometry": {"type": "Point", "coordinates": [-122.33614191412929, 47.657178618619795]}}, {"type": "Feature", "properties": {"score": 0.824}, "geometry": {"type": "Point", "coordinates": [-122.33632430434228, 47.657164165478555]}}, {"type": "Feature", "properties": {"score": 0.906}, "geometry": {"type": "Point", "coordinates": [-122.33510658144952, 47.65773506151426]}}, {"type": "Feature", "properties": {"score": 0.869}, "geometry": {"type": "Point", "coordinates": [-122.33511194586755, 47.6574315479433]}}, {"type": "Feature", "properties": {"score": 0.898}, "geometry": {"type": "Point", "coordinates": [-122.33511731028558, 47.657232817863665]}}, {"type": "Feature", "properties": {"score": 0.869}, "geometry": {"type": "Point", "coordinates": [-122.34454795718194, 47.656969047680676]}}, {"type": "Feature", "properties": {"score": 0.806}, "geometry": {"type": "Point", "coordinates": [-122.34454795718194, 47.656734182697626]}}, {"type": "Feature", "properties": {"score": 0.566}, "geometry": {"type": "Point", "coordinates": [-122.34409198164941, 47.65670166284746]}}, {"type": "Feature", "properties": {"score": 0.734}, "geometry": {"type": "Point", "coordinates": [-122.34454795718194, 47.65634755650152]}}, {"type": "Feature", "properties": {"score": 0.78}, "geometry": {"type": "Point", "coordinates": [-122.34361454844476, 47.65705576679196]}}, {"type": "Feature", "properties": {"score": 0.895}, "geometry": {"type": "Point", "coordinates": [-122.34362527728081, 47.65670166284746]}}, {"type": "Feature", "properties": {"score": 0.842}, "geometry": {"type": "Point", "coordinates": [-122.34303519129753, 47.65669804952954]}}, {"type": "Feature", "properties": {"score": 0.52}, "geometry": {"type": "Point", "coordinates": [-122.3425577580929, 47.65669443621136]}}, {"type": "Feature", "properties": {"score": 0.865}, "geometry": {"type": "Point", "coordinates": [-122.34362527728081, 47.65645234332345]}}, {"type": "Feature", "properties": {"score": 0.461}, "geometry": {"type": "Point", "coordinates": [-122.34252557158472, 47.656289742992506]}}, {"type": "Feature", "properties": {"score": 0.363}, "geometry": {"type": "Point", "coordinates": [-122.34248802065851, 47.656950981181005]}}, {"type": "Feature", "properties": {"score": 0.752}, "geometry": {"type": "Point", "coordinates": [-122.34222516417503, 47.65690039494876]}}, {"type": "Feature", "properties": {"score": 0.869}, "geometry": {"type": "Point", "coordinates": [-122.34173700213432, 47.65689678164455]}}, {"type": "Feature", "properties": {"score": 0.895}, "geometry": {"type": "Point", "coordinates": [-122.34135076403619, 47.65689316834013]}}, {"type": "Feature", "properties": {"score": 0.846}, "geometry": {"type": "Point", "coordinates": [-122.34224125742914, 47.656589649875265]}}, {"type": "Feature", "properties": {"score": 0.785}, "geometry": {"type": "Point", "coordinates": [-122.34087333083154, 47.65688955503544]}}, {"type": "Feature", "properties": {"score": 0.833}, "geometry": {"type": "Point", "coordinates": [-122.34026715159418, 47.65688955503544]}}, {"type": "Feature", "properties": {"score": 0.895}, "geometry": {"type": "Point", "coordinates": [-122.3408840596676, 47.656318649755015]}}, {"type": "Feature", "properties": {"score": 0.796}, "geometry": {"type": "Point", "coordinates": [-122.33981117606166, 47.65688955503544]}}, {"type": "Feature", "properties": {"score": 0.85}, "geometry": {"type": "Point", "coordinates": [-122.3392103612423, 47.65688232842535]}}, {"type": "Feature", "properties": {"score": 0.901}, "geometry": {"type": "Point", "coordinates": [-122.33981117606166, 47.65663662308643]}}, {"type": "Feature", "properties": {"score": 0.815}, "geometry": {"type": "Point", "coordinates": [-122.3398219048977, 47.656300583030315]}}, {"type": "Feature", "properties": {"score": 0.916}, "geometry": {"type": "Point", "coordinates": [-122.33854517340662, 47.65688232842535]}}, {"type": "Feature", "properties": {"score": 0.85}, "geometry": {"type": "Point", "coordinates": [-122.33811065554619, 47.656878715119916]}}, {"type": "Feature", "properties": {"score": 0.676}, "geometry": {"type": "Point", "coordinates": [-122.33855053782463, 47.65660410317551]}}, {"type": "Feature", "properties": {"score": 0.696}, "geometry": {"type": "Point", "coordinates": [-122.33856663107872, 47.65632948978682]}}, {"type": "Feature", "properties": {"score": 0.81}, "geometry": {"type": "Point", "coordinates": [-122.33734890818599, 47.65688232842535]}}, {"type": "Feature", "properties": {"score": 0.815}, "geometry": {"type": "Point", "coordinates": [-122.33681783080101, 47.65687148850827]}}, {"type": "Feature", "properties": {"score": 0.709}, "geometry": {"type": "Point", "coordinates": [-122.33735963702202, 47.656517383314046]}}, {"type": "Feature", "properties": {"score": 0.581}, "geometry": {"type": "Point", "coordinates": [-122.33632966876033, 47.65691846146591]}}, {"type": "Feature", "properties": {"score": 0.925}, "geometry": {"type": "Point", "coordinates": [-122.33614727854732, 47.65689678164455]}}, {"type": "Feature", "properties": {"score": 0.858}, "geometry": {"type": "Point", "coordinates": [-122.33563765883447, 47.6568678752021]}}, {"type": "Feature", "properties": {"score": 0.909}, "geometry": {"type": "Point", "coordinates": [-122.33614727854732, 47.65661132982413]}}, {"type": "Feature", "properties": {"score": 0.715}, "geometry": {"type": "Point", "coordinates": [-122.33634039759636, 47.656586036549584]}}, {"type": "Feature", "properties": {"score": 0.715}, "geometry": {"type": "Point", "coordinates": [-122.33633503317836, 47.656586036549584]}}, {"type": "Feature", "properties": {"score": 0.551}, "geometry": {"type": "Point", "coordinates": [-122.33634039759636, 47.656286129646084]}}, {"type": "Feature", "properties": {"score": 0.815}, "geometry": {"type": "Point", "coordinates": [-122.33512803912163, 47.65686426189568]}}, {"type": "Feature", "properties": {"score": 0.901}, "geometry": {"type": "Point", "coordinates": [-122.33512267470361, 47.65660410317551]}}, {"type": "Feature", "properties": {"score": 0.769}, "geometry": {"type": "Point", "coordinates": [-122.33511731028558, 47.65630419637577]}}, {"type": "Feature", "properties": {"score": 0.862}, "geometry": {"type": "Point", "coordinates": [-122.34455332159999, 47.65601512795052]}}, {"type": "Feature", "properties": {"score": 0.846}, "geometry": {"type": "Point", "coordinates": [-122.34455868601802, 47.65571883115382]}}, {"type": "Feature", "properties": {"score": 0.862}, "geometry": {"type": "Point", "coordinates": [-122.34362527728081, 47.6561163020814]}}, {"type": "Feature", "properties": {"score": 0.74}, "geometry": {"type": "Point", "coordinates": [-122.34362527728081, 47.65579832558139]}}, {"type": "Feature", "properties": {"score": 0.543}, "geometry": {"type": "Point", "coordinates": [-122.34225735068321, 47.65627167625781]}}, {"type": "Feature", "properties": {"score": 0.689}, "geometry": {"type": "Point", "coordinates": [-122.34139904379846, 47.65606210167853]}}, {"type": "Feature", "properties": {"score": 0.581}, "geometry": {"type": "Point", "coordinates": [-122.3422734439373, 47.65589588675889]}}, {"type": "Feature", "properties": {"score": 0.669}, "geometry": {"type": "Point", "coordinates": [-122.34138295054439, 47.65562849643016]}}, {"type": "Feature", "properties": {"score": 0.655}, "geometry": {"type": "Point", "coordinates": [-122.34188184142114, 47.6555381615502]}}, {"type": "Feature", "properties": {"score": 0.4}, "geometry": {"type": "Point", "coordinates": [-122.34134003520012, 47.655512867755796]}}, {"type": "Feature", "properties": {"score": 0.662}, "geometry": {"type": "Point", "coordinates": [-122.34227880835535, 47.655491187350876]}}, {"type": "Feature", "properties": {"score": 0.269}, "geometry": {"type": "Point", "coordinates": [-122.34078213572504, 47.656101848646124]}}, {"type": "Feature", "properties": {"score": 0.78}, "geometry": {"type": "Point", "coordinates": [-122.34094306826594, 47.65603319477399]}}, {"type": "Feature", "properties": {"score": 0.342}, "geometry": {"type": "Point", "coordinates": [-122.3408143222332, 47.655729671310155]}}, {"type": "Feature", "properties": {"score": 0.865}, "geometry": {"type": "Point", "coordinates": [-122.34031543135644, 47.655729671310155]}}, {"type": "Feature", "properties": {"score": 0.785}, "geometry": {"type": "Point", "coordinates": [-122.34102353453636, 47.65570799099525]}}, {"type": "Feature", "properties": {"score": 0.543}, "geometry": {"type": "Point", "coordinates": [-122.3410610854626, 47.65553093475303]}}, {"type": "Feature", "properties": {"score": 0.886}, "geometry": {"type": "Point", "coordinates": [-122.33988091349602, 47.65601151458509]}}, {"type": "Feature", "properties": {"score": 0.854}, "geometry": {"type": "Point", "coordinates": [-122.33995065093042, 47.655744124848454]}}, {"type": "Feature", "properties": {"score": 0.824}, "geometry": {"type": "Point", "coordinates": [-122.33938738703729, 47.65572244453953]}}, {"type": "Feature", "properties": {"score": 0.906}, "geometry": {"type": "Point", "coordinates": [-122.33907625079158, 47.65572244453953]}}, {"type": "Feature", "properties": {"score": 0.854}, "geometry": {"type": "Point", "coordinates": [-122.33857199549676, 47.65599706112081]}}, {"type": "Feature", "properties": {"score": 0.947}, "geometry": {"type": "Point", "coordinates": [-122.33853444457056, 47.65571883115382]}}, {"type": "Feature", "properties": {"score": 0.923}, "geometry": {"type": "Point", "coordinates": [-122.33790144324304, 47.65571883115382]}}, {"type": "Feature", "properties": {"score": 0.824}, "geometry": {"type": "Point", "coordinates": [-122.33736500144006, 47.65609100856707]}}, {"type": "Feature", "properties": {"score": 0.566}, "geometry": {"type": "Point", "coordinates": [-122.33756348490715, 47.65571883115382]}}, {"type": "Feature", "properties": {"score": 0.862}, "geometry": {"type": "Point", "coordinates": [-122.3370109498501, 47.655715217767884]}}, {"type": "Feature", "properties": {"score": 0.338}, "geometry": {"type": "Point", "coordinates": [-122.33733281493188, 47.6557116043817]}}, {"type": "Feature", "properties": {"score": 0.824}, "geometry": {"type": "Point", "coordinates": [-122.33661398291589, 47.65570799099525]}}, {"type": "Feature", "properties": {"score": 0.895}, "geometry": {"type": "Point", "coordinates": [-122.33615264296532, 47.65627167625781]}}, {"type": "Feature", "properties": {"score": 0.882}, "geometry": {"type": "Point", "coordinates": [-122.33634039759636, 47.65599706112081]}}, {"type": "Feature", "properties": {"score": 0.806}, "geometry": {"type": "Point", "coordinates": [-122.33615264296532, 47.65599706112081]}}, {"type": "Feature", "properties": {"score": 0.566}, "geometry": {"type": "Point", "coordinates": [-122.33615264296532, 47.65576580514837]}}, {"type": "Feature", "properties": {"score": 0.566}, "geometry": {"type": "Point", "coordinates": [-122.33615264296532, 47.65576219176569]}}, {"type": "Feature", "properties": {"score": 0.461}, "geometry": {"type": "Point", "coordinates": [-122.3363994061947, 47.6557116043817]}}, {"type": "Feature", "properties": {"score": 0.589}, "geometry": {"type": "Point", "coordinates": [-122.33608826994897, 47.65570437760853]}}, {"type": "Feature", "properties": {"score": 0.869}, "geometry": {"type": "Point", "coordinates": [-122.33566984534264, 47.65570437760853]}}, {"type": "Feature", "properties": {"score": 0.461}, "geometry": {"type": "Point", "coordinates": [-122.33634576201442, 47.65554538834634]}}, {"type": "Feature", "properties": {"score": 0.728}, "geometry": {"type": "Point", "coordinates": [-122.33616337180139, 47.65553454815174]}}, {"type": "Feature", "properties": {"score": 0.918}, "geometry": {"type": "Point", "coordinates": [-122.33512803912163, 47.65601151458509]}}, {"type": "Feature", "properties": {"score": 0.626}, "geometry": {"type": "Point", "coordinates": [-122.33512803912163, 47.655744124848454]}}, {"type": "Feature", "properties": {"score": 0.906}, "geometry": {"type": "Point", "coordinates": [-122.3351709544659, 47.65569715083439]}}, {"type": "Feature", "properties": {"score": 0.889}, "geometry": {"type": "Point", "coordinates": [-122.34407052397728, 47.65543337289365]}}, {"type": "Feature", "properties": {"score": 0.882}, "geometry": {"type": "Point", "coordinates": [-122.34475180506708, 47.65542975948794]}}, {"type": "Feature", "properties": {"score": 0.703}, "geometry": {"type": "Point", "coordinates": [-122.34455868601802, 47.65508648480622]}}, {"type": "Feature", "properties": {"score": 0.815}, "geometry": {"type": "Point", "coordinates": [-122.34474107623102, 47.65508287137652]}}, {"type": "Feature", "properties": {"score": 0.74}, "geometry": {"type": "Point", "coordinates": [-122.34364673495293, 47.65543337289365]}}, {"type": "Feature", "properties": {"score": 0.886}, "geometry": {"type": "Point", "coordinates": [-122.3430995643139, 47.65543337289365]}}, {"type": "Feature", "properties": {"score": 0.696}, "geometry": {"type": "Point", "coordinates": [-122.34262213110924, 47.65542975948794]}}, {"type": "Feature", "properties": {"score": 0.734}, "geometry": {"type": "Point", "coordinates": [-122.34257385134698, 47.6551334593696]}}, {"type": "Feature", "properties": {"score": 0.862}, "geometry": {"type": "Point", "coordinates": [-122.34363064169884, 47.65508287137652]}}, {"type": "Feature", "properties": {"score": 0.457}, "geometry": {"type": "Point", "coordinates": [-122.34184429049493, 47.655422532675814]}}, {"type": "Feature", "properties": {"score": 0.272}, "geometry": {"type": "Point", "coordinates": [-122.34222516417503, 47.65533942426419]}}, {"type": "Feature", "properties": {"score": 0.263}, "geometry": {"type": "Point", "coordinates": [-122.34230563044551, 47.65516959362042]}}, {"type": "Feature", "properties": {"score": 0.886}, "geometry": {"type": "Point", "coordinates": [-122.34113618731502, 47.65522379494973]}}, {"type": "Feature", "properties": {"score": 0.923}, "geometry": {"type": "Point", "coordinates": [-122.34003111720087, 47.655350264499276]}}, {"type": "Feature", "properties": {"score": 0.648}, "geometry": {"type": "Point", "coordinates": [-122.33947321772578, 47.65512261908951]}}, {"type": "Feature", "properties": {"score": 0.886}, "geometry": {"type": "Point", "coordinates": [-122.34010085463525, 47.6550467370657]}}, {"type": "Feature", "properties": {"score": 0.842}, "geometry": {"type": "Point", "coordinates": [-122.33857199549676, 47.65525270230234]}}, {"type": "Feature", "properties": {"score": 0.854}, "geometry": {"type": "Point", "coordinates": [-122.33752593398096, 47.65536833155279]}}, {"type": "Feature", "properties": {"score": 0.937}, "geometry": {"type": "Point", "coordinates": [-122.33753129839899, 47.65507564451633]}}, {"type": "Feature", "properties": {"score": 0.846}, "geometry": {"type": "Point", "coordinates": [-122.33635112643242, 47.6553538779105]}}, {"type": "Feature", "properties": {"score": 0.703}, "geometry": {"type": "Point", "coordinates": [-122.33616337180139, 47.65534665108785]}}, {"type": "Feature", "properties": {"score": 0.914}, "geometry": {"type": "Point", "coordinates": [-122.33616873621942, 47.655010602729895]}}, {"type": "Feature", "properties": {"score": 0.929}, "geometry": {"type": "Point", "coordinates": [-122.33513876795772, 47.65538639860005]}}, {"type": "Feature", "properties": {"score": 0.923}, "geometry": {"type": "Point", "coordinates": [-122.33514413237573, 47.65508287137652]}}]}